BEIDOU-2 IGSO-6 (C13)   
1 41434U 16021A   26177.11016981 -.00000145  00000+0  00000+0 0  9995
2 41434  60.2385  37.9495 0057558 231.0163 137.2672  1.00258926 37578
BEIDOU-2 G7 (C03)       
1 41586U 16037A   26180.39648595 -.00000344  00000+0  00000+0 0  9997
2 41586   1.7497  69.4211 0006835   2.6211  98.7279  1.00271246  7014
BEIDOU-3 M1 (C19)       
1 43001U 17069A   26179.40913100 -.00000066  00000+0  00000+0 0  9995
2 43001  56.7017  62.7147 0009860 326.3987  33.5922  1.86231517 58814
BEIDOU-3 M2 (C20)       
1 43002U 17069B   26179.34790919 -.00000066  00000+0  00000+0 0  9990
2 43002  56.7014  62.7523 0008884 352.9823   7.0583  1.86230801 58802
BEIDOU-3 M7 (C27)       
1 43107U 18003A   26179.08973558 -.00000089  00000+0  00000+0 0  9993
2 43107  54.3171 301.9342 0004910  95.7490 264.3050  1.86228313 57554
BEIDOU-3 M8 (C28)       
1 43108U 18003B   26180.10824274 -.00000081  00000+0  00000+0 0  9991
2 43108  54.3090 301.8814 0002750 259.2920 100.6793  1.86231229 57582
BEIDOU-3 M4 (C22)       
1 43207U 18018A   26180.01438008 -.00000060  00000+0  00000+0 0  9990
2 43207  56.6611  62.7586 0007427  23.7598 336.3310  1.86231549 56965
BEIDOU-3 M3 (C21)       
1 43208U 18018B   26180.08086541 -.00000059  00000+0  00000+0 0  9997
2 43208  56.6611  62.7601 0008125 342.8651  17.1644  1.86231367 56967
BEIDOU-3 M9 (C29)       
1 43245U 18029A   26178.68786010 -.00000090  00000+0  00000+0 0  9996
2 43245  54.1834 299.5811 0000937 166.7829 193.2191  1.86228615 56093
BEIDOU-3 M10 (C30)      
1 43246U 18029B   26179.15912422 -.00000086  00000+0  00000+0 0  9993
2 43246  54.1804 299.5911 0003621  39.5768 320.4508  1.86229480 56080
BEIDOU-2 IGSO-7 (C16)   
1 43539U 18057A   26177.50590209 -.00000028  00000+0  00000+0 0  9997
2 43539  55.1970 162.9757 0104768 237.9790 164.9478  1.00249004 29227
BEIDOU-3 M5 (C23)       
1 43581U 18062A   26178.84619419  .00000083  00000+0  00000+0 0  9993
2 43581  54.0860 181.9416 0005768 291.0967  68.8660  1.86228745 53832
BEIDOU-3 M6 (C24)       
1 43582U 18062B   26178.70971725  .00000085  00000+0  00000+0 0  9992
2 43582  54.0860 181.9355 0005105   8.8787 351.1552  1.86227843 53830
BEIDOU-3 M12 (C26)      
1 43602U 18067A   26177.03726485  .00000098  00000+0  00000+0 0  9990
2 43602  54.1810 180.7397 0007828  29.5974 330.4748  1.86227758 53285
BEIDOU-3 M11 (C25)      
1 43603U 18067B   26179.32018159  .00000078  00000+0  00000+0 0  9995
2 43603  54.1783 180.6260 0004587  12.7295 347.3012  1.86227250 53358
